{
    "type": "FeatureCollection",
    "crs": {
        "type": "name",
        "properties": {
            "name": "urn:ogc:def:crs:OGC:1.3:CRS84"
        }
    },
    "features": [
        {
            "type": "Feature",
            "properties": {
                "name": "kraftwerk",
                "layer": "restricted"
            },
            "geometry": {
                "type": "Polygon",
                "coordinates": [
                    [
                        [
                            10.173433333333334,
                            54.341033333333336
                        ],
                        [
                            10.17355,
                            54.342066666666668
                        ],
                        [
                            10.175233333333333,
                            54.3423
                        ],
                        [
                            10.175383333333333,
                            54.340583333333335
                        ],
                        [
                            10.173433333333334,
                            54.341033333333336
                        ]
                    ]
                ]
            }
        },
        {
            "type": "Feature",
            "properties": {
                "name": "Marine base kiel wiek",
                "layer": "restricted"
            },
            "geometry": {
                "type": "Polygon",
                "coordinates": [
                    [
                        [
                            10.140966666666667,
                            54.353416666666668
                        ],
                        [
                            10.1465,
                            54.362583333333333
                        ],
                        [
                            10.151316666666666,
                            54.36096666666667
                        ],
                        [
                            10.152616666666667,
                            54.3543
                        ],
                        [
                            10.148466666666666,
                            54.352683333333331
                        ],
                        [
                            10.140966666666667,
                            54.353416666666668
                        ]
                    ]
                ]
            }
        },
        {
            "type": "Feature",
            "properties": {
                "name": "Marine base arsenal",
                "layer": "restricted"
            },
            "geometry": {
                "type": "Polygon",
                "coordinates": [
                    [
                        [
                            10.153983333333333,
                            54.324466666666666
                        ],
                        [
                            10.158683333333334,
                            54.326733333333337
                        ],
                        [
                            10.166283333333332,
                            54.3313
                        ],
                        [
                            10.169383333333334,
                            54.3309
                        ],
                        [
                            10.171183333333333,
                            54.326933333333336
                        ],
                        [
                            10.156616666666666,
                            54.319333333333333
                        ],
                        [
                            10.153983333333333,
                            54.324466666666666
                        ]
                    ]
                ]
            }
        },
        {
            "type": "Feature",
            "properties": {
                "name": "Friedrichsort",
                "layer": "restricted"
            },
            "geometry": {
                "type": "Polygon",
                "coordinates": [
                    [
                        [
                            10.179,
                            54.385483333333333
                        ],
                        [
                            10.183616666666667,
                            54.390233333333335
                        ],
                        [
                            10.190616666666667,
                            54.3895
                        ],
                        [
                            10.193416666666666,
                            54.39055
                        ],
                        [
                            10.188,
                            54.385483333333333
                        ],
                        [
                            10.179,
                            54.385483333333333
                        ]
                    ]
                ]
            }
        },
        {
            "type": "Feature",
            "properties": {
                "name": "Jaegersberg",
                "layer": "restricted"
            },
            "geometry": {
                "type": "Polygon",
                "coordinates": [
                    [
                        [
                            10.204983333333333,
                            54.391333333333336
                        ],
                        [
                            10.206,
                            54.395
                        ],
                        [
                            10.209633333333333,
                            54.3962
                        ],
                        [
                            10.210616666666667,
                            54.393566666666665
                        ],
                        [
                            10.208133333333333,
                            54.389533333333333
                        ],
                        [
                            10.204983333333333,
                            54.391333333333336
                        ]
                    ]
                ]
            }
        }
    ]
}