{
  "type": "FeatureCollection",
  "crs": {
    "type": "name",
    "properties": {
      "name": "urn:ogc:def:crs:OGC:1.3:CRS84"
    }
  },
  "features": [
    {
      "type": "Feature",
      "properties": {
        "name": "BHF",
        "layer": "ferry_stop"
      },
      "geometry": {
        "coordinates": [
          [
            [
              10.134811862295606,
              54.315655831859544
            ],
            [
              10.134373502468122,
              54.31490765484381
            ],
            [
              10.136251414322771,
              54.315198088043275
            ],
            [
              10.135829290044597,
              54.31588943708593
            ],
            [
              10.134811862295606,
              54.315655831859544
            ]
          ]
        ],
        "type": "Polygon"
      }
    },
    {
      "type": "Feature",
      "properties": {
        "name": "Seegarten",
        "layer": "ferry_stop"
      },
      "geometry": {
        "coordinates": [
          [
            [
              10.144674067261718,
              54.32332481539751
            ],
            [
              10.14580803739986,
              54.32306283313224
            ],
            [
              10.146158636862566,
              54.32347817009534
            ],
            [
              10.144947973092371,
              54.323736954851995
            ],
            [
              10.144674067261718,
              54.32332481539751
            ]
          ]
        ],
        "type": "Polygon"
      }
    },
    {
      "type": "Feature",
      "properties": {
        "name": "Reventlou",
        "layer": "ferry_stop"
      },
      "geometry": {
        "coordinates": [
          [
            [
              10.15282886255335,
              54.3324188035829
            ],
            [
              10.153225688849005,
              54.33231082511716
            ],
            [
              10.154125161784947,
              54.3332723376669
            ],
            [
              10.153693062041413,
              54.333400880421294
            ],
            [
              10.15282886255335,
              54.3324188035829
            ]
          ]
        ],
        "type": "Polygon"
      }
    },
    {
      "type": "Feature",
      "properties": {
        "name": "Dietrichsdorf",
        "layer": "ferry_stop"
      },
      "geometry": {
        "coordinates": [
          [
            [
              10.1664994704104,
              54.33133147274478
            ],
            [
              10.167919788310229,
              54.33117140097323
            ],
            [
              10.170617215031683,
              54.333287062362956
            ],
            [
              10.169029799901011,
              54.333502799512615
            ],
            [
              10.1664994704104,
              54.33133147274478
            ]
          ]
        ],
        "type": "Polygon"
      }
    },
    {
      "type": "Feature",
      "properties": {
        "name": "Mönkeberg",
        "layer": "ferry_stop"
      },
      "geometry": {
        "coordinates": [
          [
            [
              10.176856220980511,
              54.352087385390234
            ],
            [
              10.176119526083,
              54.35239707770509
            ],
            [
              10.175793448012769,
              54.35172842092285
            ],
            [
              10.176675066496955,
              54.35171434382124
            ],
            [
              10.176856220980511,
              54.352087385390234
            ]
          ]
        ],
        "type": "Polygon"
      }
    },
    {
      "type": "Feature",
      "properties": {
        "name": "Möltenort",
        "layer": "ferry_stop"
      },
      "geometry": {
        "coordinates": [
          [
            [
              10.194750245096287,
              54.37626111955615
            ],
            [
              10.193977281867177,
              54.37649326359363
            ],
            [
              10.193928971664889,
              54.37574054936701
            ],
            [
              10.194750245096287,
              54.37588124466356
            ],
            [
              10.194750245096287,
              54.37626111955615
            ]
          ]
        ],
        "type": "Polygon"
      }
    },
    {
      "type": "Feature",
      "properties": {
        "name": "Friedrichsort",
        "layer": "ferry_stop"
      },
      "geometry": {
        "coordinates": [
          [
            [
              10.17825424178767,
              54.3893201381332
            ],
            [
              10.177798287251306,
              54.38875898347905
            ],
            [
              10.179010711813703,
              54.38876501744093
            ],
            [
              10.178720558927324,
              54.3893201381332
            ],
            [
              10.17825424178767,
              54.3893201381332
            ]
          ]
        ],
        "type": "Polygon"
      }
    },
    {
      "type": "Feature",
      "properties": {
        "name": "Falckenstein",
        "layer": "ferry_stop"
      },
      "geometry": {
        "coordinates": [
          [
            [
              10.193132247178113,
              54.40034760973964
            ],
            [
              10.192921845815277,
              54.40005366045688
            ],
            [
              10.193665263966949,
              54.399547409532744
            ],
            [
              10.19440868211862,
              54.40037210541789
            ],
            [
              10.193132247178113,
              54.40034760973964
            ]
          ]
        ],
        "type": "Polygon"
      }
    },
    {
      "type": "Feature",
      "properties": {
        "name": "Laboe",
        "layer": "ferry_stop"
      },
      "geometry": {
        "coordinates": [
          [
            [
              10.216194502076434,
              54.403770544263864
            ],
            [
              10.215157001883199,
              54.403696705259534
            ],
            [
              10.215356346880696,
              54.40310071404943
            ],
            [
              10.216479927869074,
              54.403427719136715
            ],
            [
              10.216194502076434,
              54.403770544263864
            ]
          ]
        ],
        "type": "Polygon"
      }
    },
    {
      "type": "Feature",
      "properties": {
        "name": "Schilksee",
        "layer": "ferry_stop"
      },
      "geometry": {
        "coordinates": [
          [
            [
              10.172474471730311,
              54.42785328898259
            ],
            [
              10.172810944366148,
              54.42735539583842
            ],
            [
              10.173898763668063,
              54.42761954600812
            ],
            [
              10.173104949582694,
              54.42808322995768
            ],
            [
              10.172474471730311,
              54.42785328898259
            ]
          ]
        ],
        "type": "Polygon"
      }
    },
    {
      "type": "Feature",
      "properties": {
        "name": "Strande",
        "layer": "ferry_stop"
      },
      "geometry": {
        "coordinates": [
          [
            [
              10.172413277937892,
              54.435326492006226
            ],
            [
              10.172235042185719,
              54.434510979977375
            ],
            [
              10.173577751523482,
              54.43456626944132
            ],
            [
              10.173054926648263,
              54.43511915997871
            ],
            [
              10.172413277937892,
              54.435326492006226
            ]
          ]
        ],
        "type": "Polygon"
      }
    },
    {
      "type": "Feature",
      "properties": {
        "name": "Bellevue",
        "layer": "ferry_stop"
      },
      "geometry": {
        "coordinates": [
          [
            [
              10.155697956473091,
              54.34477428227348
            ],
            [
              10.15601024041527,
              54.344313845014
            ],
            [
              10.156861367237411,
              54.344456616808856
            ],
            [
              10.15634089400126,
              54.34502769902991
            ],
            [
              10.155697956473091,
              54.34477428227348
            ]
          ]
        ],
        "type": "Polygon"
      }
    },
    {
      "type": "Feature",
      "properties": {
        "name": "Kanal",
        "layer": "ferry_stop"
      },
      "geometry": {
        "coordinates": [
          [
            [
              10.150750938388057,
              54.36342835210212
            ],
            [
              10.153202904260695,
              54.3691647453785
            ],
            [
              10.147609357114305,
              54.36903083093438
            ],
            [
              10.14259048946974,
              54.36956648609123
            ],
            [
              10.13803136542657,
              54.367334543509116
            ],
            [
              10.137073566257584,
              54.36534801258904
            ],
            [
              10.150750938388057,
              54.36342835210212
            ]
          ]
        ],
        "type": "Polygon"
      }
    },
    {
      "type": "Feature",
      "properties": {
        "name": "Meer_Ost",
        "layer": "ferry_stop"
      },
      "geometry": {
        "coordinates": [
          [
            [
              10.312304569504306,
              54.43473036022726
            ],
            [
              10.256187542048764,
              54.445048040415315
            ],
            [
              10.254504597048907,
              54.443846745771424
            ],
            [
              10.311546935258036,
              54.433570078190456
            ],
            [
              10.312304569504306,
              54.43473036022726
            ]
          ]
        ],
        "type": "Polygon"
      }
    },
    {
      "type": "Feature",
      "properties": {
        "name": "Meer_West",
        "layer": "ferry_stop"
      },
      "geometry": {
        "coordinates": [
          [
            [
              10.198444606623184,
              54.455666708503486
            ],
            [
              10.197326978331859,
              54.45454383736569
            ],
            [
              10.228626420287128,
              54.44906027925117
            ],
            [
              10.229257710331666,
              54.45021821095139
            ],
            [
              10.198444606623184,
              54.455666708503486
            ]
          ]
        ],
        "type": "Polygon"
      }
    },
    {
      "type": "Feature",
      "properties": {
        "name": "Meer_Mitte",
        "layer": "ferry_stop"
      },
      "geometry": {
        "coordinates": [
          [
            [
              10.229111972300416,
              54.45033100085419
            ],
            [
              10.228517890829238,
              54.4490969321443
            ],
            [
              10.254470614369637,
              54.44387787288878
            ],
            [
              10.256143974942006,
              54.44505427911551
            ],
            [
              10.229111972300416,
              54.45033100085419
            ]
          ]
        ],
        "type": "Polygon"
      }
    }
  ]
}