{
"type": "FeatureCollection",
"crs": { "type": "name", "properties": { "name": "urn:ogc:def:crs:OGC:1.3:CRS84" } },
"features": [
{ "type": "Feature", "properties": { "name": "kiel approach green", "layer": "waterways" }, "geometry": { "type": "LineString", "coordinates": [ [ 10.25425, 54.475033333333336 ], [ 10.211033333333333, 54.428233333333331 ], [ 10.204316666666667, 54.413766666666668 ], [ 10.1977, 54.39935 ], [ 10.194933333333333, 54.389983333333333 ], [ 10.170583333333333, 54.36925 ], [ 10.154083333333332, 54.369 ] ] } },
{ "type": "Feature", "properties": { "name": "kiel approach red", "layer": "waterways" }, "geometry": { "type": "LineString", "coordinates": [ [ 10.285966666666667, 54.465183333333336 ], [ 10.2324, 54.429333333333332 ], [ 10.2146, 54.413233333333331 ], [ 10.206, 54.3996 ], [ 10.203366666666666, 54.389633333333336 ], [ 10.1935, 54.380733333333332 ], [ 10.184883333333334, 54.372683333333335 ], [ 10.175983333333333, 54.364166666666669 ], [ 10.1621, 54.361266666666666 ], [ 10.151683333333333, 54.36305 ] ] } },
{ "type": "Feature", "properties": { "name": "kiel fjord green", "layer": "waterways" }, "geometry": { "type": "LineString", "coordinates": [ [ 10.1621, 54.361266666666666 ], [ 10.1612, 54.337633333333336 ], [ 10.153416666666667, 54.331833333333336 ] ] } },
{ "type": "Feature", "properties": { "name": "kiel fjord red", "layer": "waterways" }, "geometry": { "type": "LineString", "coordinates": [ [ 10.175983333333333, 54.364166666666669 ], [ 10.16835, 54.348416666666665 ], [ 10.16175, 54.329933333333337 ] ] } },
{ "type": "Feature", "properties": { "name": "waterway kiel approach", "layer": "waterways" }, "geometry": { "type": "Polygon", "coordinates": [ [ [ 10.25425, 54.475033333333336 ], [ 10.211033333333333, 54.428233333333331 ], [ 10.204316666666667, 54.413766666666668 ], [ 10.1977, 54.39935 ], [ 10.194933333333333, 54.389983333333333 ], [ 10.170583333333333, 54.36925 ], [ 10.154083333333332, 54.369 ], [ 10.151683333333333, 54.36305 ], [ 10.1621, 54.361266666666666 ], [ 10.175983333333333, 54.364166666666669 ], [ 10.184883333333334, 54.372683333333335 ], [ 10.1935, 54.380733333333332 ], [ 10.203366666666666, 54.389633333333336 ], [ 10.206, 54.3996 ], [ 10.2146, 54.413233333333331 ], [ 10.2324, 54.429333333333332 ], [ 10.285966666666667, 54.465183333333336 ], [ 10.25425, 54.475033333333336 ] ] ] } },
{ "type": "Feature", "properties": { "name": "waterway kiel fjord", "layer": "waterways" }, "geometry": { "type": "Polygon", "coordinates": [ [ [ 10.1621, 54.361266666666666 ], [ 10.1612, 54.337633333333336 ], [ 10.153416666666667, 54.331833333333336 ], [ 10.16175, 54.329933333333337 ], [ 10.16835, 54.348416666666665 ], [ 10.175983333333333, 54.364166666666669 ], [ 10.1621, 54.361266666666666 ] ] ] } },
{ "type": "Feature", "properties": { "name": "waterways NOK", "layer": "waterways" }, "geometry": { "type": "Polygon", "coordinates": [ [ [ 10.170583333333333, 54.36925 ], [ 10.154083333333332, 54.369 ], [ 10.138166666666667, 54.370366666666669 ], [ 10.131766666666667, 54.36633333333333 ], [ 10.151666666666667, 54.363083333333336 ], [ 10.162083333333333, 54.36125 ], [ 10.170583333333333, 54.36925 ] ] ] } },
{ "type": "Feature", "properties": { "name": "waterways total", "layer": "waterways" }, "geometry": { "type": "Polygon", "coordinates": [ [ [ 10.16835, 54.348416666666665 ], [ 10.16175, 54.329933333333337 ], [ 10.153416666666667, 54.331833333333336 ], [ 10.1612, 54.337633333333336 ], [ 10.162099961276999, 54.361265649829328 ], [ 10.162083333333333, 54.36125 ], [ 10.158016666666692, 54.361965733333328 ], [ 10.151683333333333, 54.36305 ], [ 10.151694782708764, 54.363078384909926 ], [ 10.151666666666667, 54.363083333333336 ], [ 10.131766666666667, 54.36633333333333 ], [ 10.138166666666667, 54.370366666666669 ], [ 10.154083333333332, 54.369 ], [ 10.170583333333333, 54.36925 ], [ 10.194933333333333, 54.389983333333333 ], [ 10.1977, 54.39935 ], [ 10.204316666666667, 54.413766666666668 ], [ 10.211033333333333, 54.428233333333331 ], [ 10.25425, 54.475033333333336 ], [ 10.285966666666667, 54.465183333333336 ], [ 10.2324, 54.429333333333332 ], [ 10.2146, 54.413233333333331 ], [ 10.206, 54.3996 ], [ 10.203366666666666, 54.389633333333336 ], [ 10.1935, 54.380733333333332 ], [ 10.184883333333334, 54.372683333333335 ], [ 10.175983333333333, 54.364166666666669 ], [ 10.16835, 54.348416666666665 ] ] ] } }
]
}
