{
    "type": "FeatureCollection",
    "crs": {
        "type": "name",
        "properties": {
            "name": "urn:ogc:def:crs:OGC:1.3:CRS84"
        }
    },
    "features": [
        {
            "type": "Feature",
            "properties": {
                "name": "Hörn",
                "layer": "marina"
            },
            "geometry": {
                "type": "Polygon",
                "coordinates": [
                    [
                        [
                            10.133866666666666,
                            54.31535
                        ],
                        [
                            10.131683333333333,
                            54.31135
                        ],
                        [
                            10.134,
                            54.310883333333337
                        ],
                        [
                            10.1363,
                            54.31485
                        ],
                        [
                            10.133866666666666,
                            54.31535
                        ]
                    ]
                ]
            }
        },
        {
            "type": "Feature",
            "properties": {
                "name": "Museaumshafen",
                "layer": "marina"
            },
            "geometry": {
                "type": "Polygon",
                "coordinates": [
                    [
                        [
                            10.136183333333333,
                            54.314783333333331
                        ],
                        [
                            10.1361,
                            54.31453333333333
                        ],
                        [
                            10.137866666666667,
                            54.31415
                        ],
                        [
                            10.138116666666667,
                            54.314383333333332
                        ],
                        [
                            10.136183333333333,
                            54.314783333333331
                        ]
                    ]
                ]
            }
        },
        {
            "type": "Feature",
            "properties": {
                "name": "Sporthafen Seeburg",
                "layer": "marina"
            },
            "geometry": {
                "type": "Polygon",
                "coordinates": [
                    [
                        [
                            10.14745,
                            54.32595
                        ],
                        [
                            10.148116666666667,
                            54.32665
                        ],
                        [
                            10.150566666666666,
                            54.33015
                        ],
                        [
                            10.149616666666667,
                            54.330466666666666
                        ],
                        [
                            10.146833333333333,
                            54.32795
                        ],
                        [
                            10.14745,
                            54.32595
                        ]
                    ]
                ]
            }
        },
        {
            "type": "Feature",
            "properties": {
                "name": "Sporthafen Reevetlou",
                "layer": "marina"
            },
            "geometry": {
                "type": "Polygon",
                "coordinates": [
                    [
                        [
                            10.149616666666667,
                            54.330466666666666
                        ],
                        [
                            10.150566666666666,
                            54.33015
                        ],
                        [
                            10.153016666666666,
                            54.33253333333333
                        ],
                        [
                            10.153883333333333,
                            54.333433333333332
                        ],
                        [
                            10.152366666666667,
                            54.333916666666667
                        ],
                        [
                            10.149616666666667,
                            54.330466666666666
                        ]
                    ]
                ]
            }
        },
        {
            "type": "Feature",
            "properties": {
                "name": "Sporthafen Blücherbrücke",
                "layer": "marina"
            },
            "geometry": {
                "type": "Polygon",
                "coordinates": [
                    [
                        [
                            10.157066666666667,
                            54.33535
                        ],
                        [
                            10.158783333333334,
                            54.337783333333334
                        ],
                        [
                            10.156866666666666,
                            54.33745
                        ],
                        [
                            10.15575,
                            54.33591666666667
                        ],
                        [
                            10.157066666666667,
                            54.33535
                        ]
                    ]
                ]
            }
        },
        {
            "type": "Feature",
            "properties": {
                "name": "Sporthafen Düsternbrook",
                "layer": "marina"
            },
            "geometry": {
                "type": "Polygon",
                "coordinates": [
                    [
                        [
                            10.156866666666666,
                            54.33745
                        ],
                        [
                            10.158783333333334,
                            54.337783333333334
                        ],
                        [
                            10.1583,
                            54.340833333333336
                        ],
                        [
                            10.156383333333334,
                            54.340816666666669
                        ],
                        [
                            10.156866666666666,
                            54.33745
                        ]
                    ]
                ]
            }
        },
        {
            "type": "Feature",
            "properties": {
                "name": "Sporthafen Wellingdorf",
                "layer": "marina"
            },
            "geometry": {
                "type": "Polygon",
                "coordinates": [
                    [
                        [
                            10.169733333333333,
                            54.330716666666667
                        ],
                        [
                            10.170766666666667,
                            54.328333333333333
                        ],
                        [
                            10.17465,
                            54.32895
                        ],
                        [
                            10.17475,
                            54.329516666666663
                        ],
                        [
                            10.169733333333333,
                            54.330716666666667
                        ]
                    ]
                ]
            }
        },
        {
            "type": "Feature",
            "properties": {
                "name": "Sporthafen Dietrichsdorf",
                "layer": "marina"
            },
            "geometry": {
                "type": "Polygon",
                "coordinates": [
                    [
                        [
                            10.1742,
                            54.330333333333336
                        ],
                        [
                            10.17735,
                            54.329483333333336
                        ],
                        [
                            10.178316666666667,
                            54.329416666666667
                        ],
                        [
                            10.178566666666667,
                            54.329933333333337
                        ],
                        [
                            10.174783333333334,
                            54.331166666666668
                        ],
                        [
                            10.1742,
                            54.330333333333336
                        ]
                    ]
                ]
            }
        },
        {
            "type": "Feature",
            "properties": {
                "name": "Sporthafen Schwentine",
                "layer": "marina"
            },
            "geometry": {
                "type": "Polygon",
                "coordinates": [
                    [
                        [
                            10.183466666666666,
                            54.3278
                        ],
                        [
                            10.183333333333334,
                            54.3276
                        ],
                        [
                            10.183433333333333,
                            54.32675
                        ],
                        [
                            10.18615,
                            54.3268
                        ],
                        [
                            10.185866666666668,
                            54.327283333333334
                        ],
                        [
                            10.18555,
                            54.32738333333333
                        ],
                        [
                            10.183466666666666,
                            54.3278
                        ]
                    ]
                ]
            }
        },
        {
            "type": "Feature",
            "properties": {
                "name": "Sporthafen Mönkeberg",
                "layer": "marina"
            },
            "geometry": {
                "type": "Polygon",
                "coordinates": [
                    [
                        [
                            10.175833333333333,
                            54.3545
                        ],
                        [
                            10.176233333333334,
                            54.35235
                        ],
                        [
                            10.178066666666666,
                            54.352883333333331
                        ],
                        [
                            10.177683333333333,
                            54.354666666666667
                        ],
                        [
                            10.175833333333333,
                            54.3545
                        ]
                    ]
                ]
            }
        },
        {
            "type": "Feature",
            "properties": {
                "name": "Sporthafen Wik",
                "layer": "marina"
            },
            "geometry": {
                "type": "Polygon",
                "coordinates": [
                    [
                        [
                            10.143983333333333,
                            54.3526
                        ],
                        [
                            10.142516666666667,
                            54.351816666666664
                        ],
                        [
                            10.144566666666666,
                            54.350566666666666
                        ],
                        [
                            10.146083333333333,
                            54.35155
                        ],
                        [
                            10.143983333333333,
                            54.3526
                        ]
                    ]
                ]
            }
        },
        {
            "type": "Feature",
            "properties": {
                "name": "Fisch. Yachthafen Möltenort/Heikendorf",
                "layer": "marina"
            },
            "geometry": {
                "type": "Polygon",
                "coordinates": [
                    [
                        [
                            10.196283333333334,
                            54.376983333333335
                        ],
                        [
                            10.194083333333333,
                            54.376316666666668
                        ],
                        [
                            10.19475,
                            54.37465
                        ],
                        [
                            10.19335,
                            54.373516666666667
                        ],
                        [
                            10.19555,
                            54.372866666666667
                        ],
                        [
                            10.19765,
                            54.374916666666664
                        ],
                        [
                            10.196283333333334,
                            54.376983333333335
                        ]
                    ]
                ]
            }
        },
        {
            "type": "Feature",
            "properties": {
                "name": "Sporthafen Stickenhörn",
                "layer": "marina"
            },
            "geometry": {
                "type": "Polygon",
                "coordinates": [
                    [
                        [
                            10.162216666666666,
                            54.37936666666667
                        ],
                        [
                            10.170883333333334,
                            54.381316666666663
                        ],
                        [
                            10.166383333333334,
                            54.387283333333336
                        ],
                        [
                            10.156533333333334,
                            54.384633333333333
                        ],
                        [
                            10.162216666666666,
                            54.37936666666667
                        ]
                    ]
                ]
            }
        },
        {
            "type": "Feature",
            "properties": {
                "name": "Yachthafen Laboe",
                "layer": "marina"
            },
            "geometry": {
                "type": "Polygon",
                "coordinates": [
                    [
                        [
                            10.212933333333334,
                            54.397266666666667
                        ],
                        [
                            10.210216666666666,
                            54.400116666666669
                        ],
                        [
                            10.216983333333333,
                            54.404333333333334
                        ],
                        [
                            10.2212,
                            54.403116666666669
                        ],
                        [
                            10.212933333333334,
                            54.397266666666667
                        ]
                    ]
                ]
            }
        },
        {
            "type": "Feature",
            "properties": {
                "name": "Strander Bucht",
                "layer": "marina"
            },
            "geometry": {
                "type": "Polygon",
                "coordinates": [
                    [
                        [
                            10.170916666666667,
                            54.427183333333332
                        ],
                        [
                            10.174833333333334,
                            54.427916666666668
                        ],
                        [
                            10.172933333333333,
                            54.434866666666665
                        ],
                        [
                            10.174283333333333,
                            54.437366666666669
                        ],
                        [
                            10.165283333333333,
                            54.435866666666669
                        ],
                        [
                            10.1704,
                            54.426966666666665
                        ],
                        [
                            10.170916666666667,
                            54.427183333333332
                        ]
                    ]
                ]
            }
        },
        {
            "type": "Feature",
            "properties": {
                "name": "Marine Wendtdorf",
                "layer": "marina"
            },
            "geometry": {
                "type": "Polygon",
                "coordinates": [
                    [
                        [
                            10.271033333333333,
                            54.418733333333336
                        ],
                        [
                            10.291516666666666,
                            54.417433333333335
                        ],
                        [
                            10.297116666666668,
                            54.429283333333331
                        ],
                        [
                            10.289716666666667,
                            54.4299
                        ],
                        [
                            10.273216666666666,
                            54.424033333333334
                        ],
                        [
                            10.271033333333333,
                            54.418733333333336
                        ]
                    ]
                ]
            }
        }
    ]
}