{
    "type": "FeatureCollection",
    "crs": {
        "type": "name",
        "properties": {
            "name": "urn:ogc:def:crs:OGC:1.3:CRS84"
        }
    },
    "features": [
        {
            "type": "Feature",
            "properties": {
                "name": "kiel fjord water area",
                "layer": "water"
            },
            "geometry": {
                "type": "Polygon",
                "coordinates": [
                    [
                        [
                            10.198835231873492,
                            54.454948185498793
                        ],
                        [
                            10.1984,
                            54.4546
                        ],
                        [
                            10.1979,
                            54.4543
                        ],
                        [
                            10.1975,
                            54.4539
                        ],
                        [
                            10.1972,
                            54.4534
                        ],
                        [
                            10.1969,
                            54.4526
                        ],
                        [
                            10.1967,
                            54.4521
                        ],
                        [
                            10.1963,
                            54.4514
                        ],
                        [
                            10.1962,
                            54.4509
                        ],
                        [
                            10.1958,
                            54.4502
                        ],
                        [
                            10.1956,
                            54.4498
                        ],
                        [
                            10.1952,
                            54.4496
                        ],
                        [
                            10.1947,
                            54.4494
                        ],
                        [
                            10.1944,
                            54.4492
                        ],
                        [
                            10.1941,
                            54.449
                        ],
                        [
                            10.1935,
                            54.4489
                        ],
                        [
                            10.1929,
                            54.4488
                        ],
                        [
                            10.1926,
                            54.4486
                        ],
                        [
                            10.1922,
                            54.4484
                        ],
                        [
                            10.1919,
                            54.4482
                        ],
                        [
                            10.1908,
                            54.448
                        ],
                        [
                            10.1901,
                            54.4479
                        ],
                        [
                            10.189,
                            54.4479
                        ],
                        [
                            10.1879,
                            54.4479
                        ],
                        [
                            10.1873,
                            54.4479
                        ],
                        [
                            10.1866,
                            54.4478
                        ],
                        [
                            10.1859,
                            54.4476
                        ],
                        [
                            10.1851,
                            54.4474
                        ],
                        [
                            10.1846,
                            54.4471
                        ],
                        [
                            10.1843,
                            54.4468
                        ],
                        [
                            10.1841,
                            54.4466
                        ],
                        [
                            10.1835,
                            54.4464
                        ],
                        [
                            10.1831,
                            54.446
                        ],
                        [
                            10.1825,
                            54.4454
                        ],
                        [
                            10.1819,
                            54.4444
                        ],
                        [
                            10.1813,
                            54.4435
                        ],
                        [
                            10.1809,
                            54.4427
                        ],
                        [
                            10.1806,
                            54.4423
                        ],
                        [
                            10.1802,
                            54.4418
                        ],
                        [
                            10.1796,
                            54.4414
                        ],
                        [
                            10.179,
                            54.441
                        ],
                        [
                            10.1787,
                            54.4405
                        ],
                        [
                            10.1784,
                            54.44
                        ],
                        [
                            10.178,
                            54.4395
                        ],
                        [
                            10.1773,
                            54.4383
                        ],
                        [
                            10.1764,
                            54.4376
                        ],
                        [
                            10.1757,
                            54.4372
                        ],
                        [
                            10.1753,
                            54.4367
                        ],
                        [
                            10.175,
                            54.4361
                        ],
                        [
                            10.1745,
                            54.4361
                        ],
                        [
                            10.1739,
                            54.4361
                        ],
                        [
                            10.1736,
                            54.4365
                        ],
                        [
                            10.1724,
                            54.4363
                        ],
                        [
                            10.1714,
                            54.4361
                        ],
                        [
                            10.1703,
                            54.4358
                        ],
                        [
                            10.1697,
                            54.4356
                        ],
                        [
                            10.169,
                            54.4354
                        ],
                        [
                            10.169,
                            54.4348
                        ],
                        [
                            10.1689,
                            54.4341
                        ],
                        [
                            10.1689,
                            54.4334
                        ],
                        [
                            10.169,
                            54.433
                        ],
                        [
                            10.1693,
                            54.4328
                        ],
                        [
                            10.1685,
                            54.4328
                        ],
                        [
                            10.1692,
                            54.4314
                        ],
                        [
                            10.1696,
                            54.4307
                        ],
                        [
                            10.1701,
                            54.4302
                        ],
                        [
                            10.1702,
                            54.43
                        ],
                        [
                            10.1696,
                            54.4299
                        ],
                        [
                            10.1711,
                            54.4284
                        ],
                        [
                            10.1715,
                            54.4278
                        ],
                        [
                            10.1716,
                            54.4274
                        ],
                        [
                            10.1718,
                            54.4269
                        ],
                        [
                            10.1723,
                            54.4265
                        ],
                        [
                            10.1728,
                            54.426
                        ],
                        [
                            10.1734,
                            54.4252
                        ],
                        [
                            10.174,
                            54.4247
                        ],
                        [
                            10.1747,
                            54.424
                        ],
                        [
                            10.1751,
                            54.4237
                        ],
                        [
                            10.1756,
                            54.4233
                        ],
                        [
                            10.1761,
                            54.4228
                        ],
                        [
                            10.1768,
                            54.4225
                        ],
                        [
                            10.177,
                            54.4222
                        ],
                        [
                            10.1776,
                            54.4215
                        ],
                        [
                            10.1781,
                            54.4206
                        ],
                        [
                            10.1788,
                            54.4199
                        ],
                        [
                            10.1795,
                            54.4191
                        ],
                        [
                            10.1801,
                            54.4183
                        ],
                        [
                            10.1806,
                            54.4179
                        ],
                        [
                            10.1812,
                            54.4171
                        ],
                        [
                            10.1815,
                            54.4168
                        ],
                        [
                            10.1824,
                            54.4163
                        ],
                        [
                            10.1834,
                            54.4156
                        ],
                        [
                            10.1859,
                            54.4139
                        ],
                        [
                            10.1868,
                            54.4133
                        ],
                        [
                            10.1874,
                            54.4128
                        ],
                        [
                            10.1881,
                            54.4122
                        ],
                        [
                            10.1884,
                            54.4118
                        ],
                        [
                            10.1888,
                            54.4111
                        ],
                        [
                            10.1892,
                            54.4101
                        ],
                        [
                            10.1896,
                            54.4093
                        ],
                        [
                            10.1899,
                            54.4084
                        ],
                        [
                            10.1904,
                            54.4076
                        ],
                        [
                            10.1907,
                            54.407
                        ],
                        [
                            10.1913,
                            54.4053
                        ],
                        [
                            10.1919,
                            54.4046
                        ],
                        [
                            10.1924,
                            54.4039
                        ],
                        [
                            10.1928,
                            54.4032
                        ],
                        [
                            10.1927,
                            54.4026
                        ],
                        [
                            10.1924,
                            54.4019
                        ],
                        [
                            10.1921,
                            54.4013
                        ],
                        [
                            10.1919,
                            54.4005
                        ],
                        [
                            10.1917,
                            54.4
                        ],
                        [
                            10.1912,
                            54.3998
                        ],
                        [
                            10.1908,
                            54.3993
                        ],
                        [
                            10.1907,
                            54.3988
                        ],
                        [
                            10.1906,
                            54.3982
                        ],
                        [
                            10.1904,
                            54.3976
                        ],
                        [
                            10.1898,
                            54.397
                        ],
                        [
                            10.1893,
                            54.3966
                        ],
                        [
                            10.189,
                            54.396
                        ],
                        [
                            10.1895,
                            54.3955
                        ],
                        [
                            10.1892,
                            54.3953
                        ],
                        [
                            10.189,
                            54.3947
                        ],
                        [
                            10.1894,
                            54.3941
                        ],
                        [
                            10.1895,
                            54.3938
                        ],
                        [
                            10.1891,
                            54.3934
                        ],
                        [
                            10.1892,
                            54.393
                        ],
                        [
                            10.1895,
                            54.3927
                        ],
                        [
                            10.1895,
                            54.3923
                        ],
                        [
                            10.1908,
                            54.3914
                        ],
                        [
                            10.1916,
                            54.3909
                        ],
                        [
                            10.1923,
                            54.3902
                        ],
                        [
                            10.1918,
                            54.3901
                        ],
                        [
                            10.1906,
                            54.3896
                        ],
                        [
                            10.1902,
                            54.3896
                        ],
                        [
                            10.1896,
                            54.3896
                        ],
                        [
                            10.1889,
                            54.3897
                        ],
                        [
                            10.1879,
                            54.3898
                        ],
                        [
                            10.1872,
                            54.3899
                        ],
                        [
                            10.1863,
                            54.39
                        ],
                        [
                            10.1855,
                            54.39
                        ],
                        [
                            10.185,
                            54.3901
                        ],
                        [
                            10.1844,
                            54.3903
                        ],
                        [
                            10.1837,
                            54.3904
                        ],
                        [
                            10.1836,
                            54.3899
                        ],
                        [
                            10.1807,
                            54.3901
                        ],
                        [
                            10.1805,
                            54.3897
                        ],
                        [
                            10.1792,
                            54.3897
                        ],
                        [
                            10.1791,
                            54.39
                        ],
                        [
                            10.1782,
                            54.3901
                        ],
                        [
                            10.1767,
                            54.3899
                        ],
                        [
                            10.1761,
                            54.3898
                        ],
                        [
                            10.1754,
                            54.3896
                        ],
                        [
                            10.1747,
                            54.3894
                        ],
                        [
                            10.1743,
                            54.3891
                        ],
                        [
                            10.1745,
                            54.3888
                        ],
                        [
                            10.1724,
                            54.388
                        ],
                        [
                            10.1715,
                            54.3877
                        ],
                        [
                            10.1707,
                            54.388
                        ],
                        [
                            10.1682,
                            54.3869
                        ],
                        [
                            10.1663,
                            54.3863
                        ],
                        [
                            10.1643,
                            54.3857
                        ],
                        [
                            10.1618,
                            54.3854
                        ],
                        [
                            10.1612,
                            54.3852
                        ],
                        [
                            10.1607,
                            54.3847
                        ],
                        [
                            10.1621,
                            54.3812
                        ],
                        [
                            10.1626,
                            54.3809
                        ],
                        [
                            10.1635,
                            54.38
                        ],
                        [
                            10.1651,
                            54.3804
                        ],
                        [
                            10.1656,
                            54.3797
                        ],
                        [
                            10.1668,
                            54.3779
                        ],
                        [
                            10.1653,
                            54.3775
                        ],
                        [
                            10.1608,
                            54.3761
                        ],
                        [
                            10.1599,
                            54.3757
                        ],
                        [
                            10.1594,
                            54.3752
                        ],
                        [
                            10.1591,
                            54.3747
                        ],
                        [
                            10.1588,
                            54.3742
                        ],
                        [
                            10.1584,
                            54.3735
                        ],
                        [
                            10.1568,
                            54.3717
                        ],
                        [
                            10.1565,
                            54.3713
                        ],
                        [
                            10.1552,
                            54.37
                        ],
                        [
                            10.1541,
                            54.3689
                        ],
                        [
                            10.148,
                            54.3688
                        ],
                        [
                            10.1469,
                            54.369
                        ],
                        [
                            10.1427,
                            54.3697
                        ],
                        [
                            10.1426,
                            54.3696
                        ],
                        [
                            10.1425,
                            54.3693
                        ],
                        [
                            10.1424,
                            54.3691
                        ],
                        [
                            10.1439,
                            54.3689
                        ],
                        [
                            10.1441,
                            54.3688
                        ],
                        [
                            10.144,
                            54.3687
                        ],
                        [
                            10.1438,
                            54.3685
                        ],
                        [
                            10.1436,
                            54.3685
                        ],
                        [
                            10.1395,
                            54.3685
                        ],
                        [
                            10.1395,
                            54.3675
                        ],
                        [
                            10.1483,
                            54.3675
                        ],
                        [
                            10.1485,
                            54.3674
                        ],
                        [
                            10.1484,
                            54.3664
                        ],
                        [
                            10.1481,
                            54.3662
                        ],
                        [
                            10.148,
                            54.366
                        ],
                        [
                            10.148,
                            54.3658
                        ],
                        [
                            10.1451,
                            54.3661
                        ],
                        [
                            10.1449,
                            54.3658
                        ],
                        [
                            10.1395,
                            54.3666
                        ],
                        [
                            10.1393,
                            54.3661
                        ],
                        [
                            10.1392,
                            54.3657
                        ],
                        [
                            10.1521,
                            54.3633
                        ],
                        [
                            10.1515,
                            54.3625
                        ],
                        [
                            10.1472,
                            54.3635
                        ],
                        [
                            10.1459,
                            54.362
                        ],
                        [
                            10.15,
                            54.3604
                        ],
                        [
                            10.1498,
                            54.3592
                        ],
                        [
                            10.1455,
                            54.3611
                        ],
                        [
                            10.1441,
                            54.3592
                        ],
                        [
                            10.1433,
                            54.3583
                        ],
                        [
                            10.1425,
                            54.3571
                        ],
                        [
                            10.142,
                            54.3559
                        ],
                        [
                            10.1416,
                            54.3548
                        ],
                        [
                            10.1414,
                            54.3539
                        ],
                        [
                            10.1421,
                            54.3532
                        ],
                        [
                            10.1429,
                            54.3524
                        ],
                        [
                            10.1436,
                            54.3519
                        ],
                        [
                            10.1506,
                            54.3483
                        ],
                        [
                            10.1515,
                            54.3478
                        ],
                        [
                            10.1523,
                            54.3473
                        ],
                        [
                            10.1529,
                            54.3469
                        ],
                        [
                            10.1534,
                            54.3465
                        ],
                        [
                            10.1544,
                            54.3457
                        ],
                        [
                            10.1553,
                            54.3449
                        ],
                        [
                            10.1554,
                            54.3447
                        ],
                        [
                            10.1557,
                            54.3443
                        ],
                        [
                            10.1565,
                            54.3427
                        ],
                        [
                            10.1572,
                            54.3415
                        ],
                        [
                            10.1574,
                            54.3408
                        ],
                        [
                            10.1578,
                            54.3396
                        ],
                        [
                            10.1577,
                            54.3384
                        ],
                        [
                            10.1576,
                            54.3378
                        ],
                        [
                            10.1572,
                            54.337
                        ],
                        [
                            10.157,
                            54.3368
                        ],
                        [
                            10.1559,
                            54.336
                        ],
                        [
                            10.1554,
                            54.3355
                        ],
                        [
                            10.1535,
                            54.3344
                        ],
                        [
                            10.1528,
                            54.3337
                        ],
                        [
                            10.1519,
                            54.3327
                        ],
                        [
                            10.1505,
                            54.3311
                        ],
                        [
                            10.15,
                            54.3305
                        ],
                        [
                            10.149,
                            54.3295
                        ],
                        [
                            10.1483,
                            54.3287
                        ],
                        [
                            10.1478,
                            54.3282
                        ],
                        [
                            10.1476,
                            54.3278
                        ],
                        [
                            10.1481,
                            54.3277
                        ],
                        [
                            10.1465,
                            54.3263
                        ],
                        [
                            10.1469,
                            54.3259
                        ],
                        [
                            10.147,
                            54.3258
                        ],
                        [
                            10.1468,
                            54.3257
                        ],
                        [
                            10.1465,
                            54.3256
                        ],
                        [
                            10.146,
                            54.3248
                        ],
                        [
                            10.1454,
                            54.3237
                        ],
                        [
                            10.1443,
                            54.3221
                        ],
                        [
                            10.1425,
                            54.3207
                        ],
                        [
                            10.1362,
                            54.3176
                        ],
                        [
                            10.1346,
                            54.3151
                        ],
                        [
                            10.1325,
                            54.3113
                        ],
                        [
                            10.1334,
                            54.3111
                        ],
                        [
                            10.1344,
                            54.311
                        ],
                        [
                            10.1361,
                            54.3142
                        ],
                        [
                            10.1376,
                            54.314
                        ],
                        [
                            10.1382,
                            54.3146
                        ],
                        [
                            10.1363,
                            54.315
                        ],
                        [
                            10.1368,
                            54.316
                        ],
                        [
                            10.1376,
                            54.316
                        ],
                        [
                            10.1385,
                            54.3168
                        ],
                        [
                            10.1393,
                            54.317
                        ],
                        [
                            10.1403,
                            54.3177
                        ],
                        [
                            10.141,
                            54.3174
                        ],
                        [
                            10.1425,
                            54.3181
                        ],
                        [
                            10.143,
                            54.3184
                        ],
                        [
                            10.1434,
                            54.3182
                        ],
                        [
                            10.1441,
                            54.3179
                        ],
                        [
                            10.1471,
                            54.3198
                        ],
                        [
                            10.1486,
                            54.3201
                        ],
                        [
                            10.1494,
                            54.3203
                        ],
                        [
                            10.1486,
                            54.3219
                        ],
                        [
                            10.1499,
                            54.3221
                        ],
                        [
                            10.1506,
                            54.3205
                        ],
                        [
                            10.151,
                            54.3196
                        ],
                        [
                            10.1523,
                            54.3197
                        ],
                        [
                            10.1521,
                            54.3205
                        ],
                        [
                            10.1506,
                            54.3239
                        ],
                        [
                            10.154,
                            54.3245
                        ],
                        [
                            10.1542,
                            54.3242
                        ],
                        [
                            10.1549,
                            54.3228
                        ],
                        [
                            10.1554,
                            54.3224
                        ],
                        [
                            10.159,
                            54.3239
                        ],
                        [
                            10.1606,
                            54.3226
                        ],
                        [
                            10.1639,
                            54.324
                        ],
                        [
                            10.1628,
                            54.3251
                        ],
                        [
                            10.17,
                            54.3288
                        ],
                        [
                            10.1692,
                            54.3302
                        ],
                        [
                            10.1671,
                            54.3306
                        ],
                        [
                            10.1666,
                            54.3305
                        ],
                        [
                            10.1661,
                            54.3304
                        ],
                        [
                            10.1657,
                            54.3302
                        ],
                        [
                            10.1615,
                            54.3274
                        ],
                        [
                            10.1607,
                            54.3269
                        ],
                        [
                            10.16,
                            54.3265
                        ],
                        [
                            10.1594,
                            54.3263
                        ],
                        [
                            10.1589,
                            54.3263
                        ],
                        [
                            10.1585,
                            54.3264
                        ],
                        [
                            10.1585,
                            54.3266
                        ],
                        [
                            10.1585,
                            54.3268
                        ],
                        [
                            10.159,
                            54.3271
                        ],
                        [
                            10.1604,
                            54.3276
                        ],
                        [
                            10.1609,
                            54.3279
                        ],
                        [
                            10.1655,
                            54.331
                        ],
                        [
                            10.1659,
                            54.3312
                        ],
                        [
                            10.1664,
                            54.3313
                        ],
                        [
                            10.167,
                            54.3313
                        ],
                        [
                            10.1675,
                            54.3312
                        ],
                        [
                            10.169,
                            54.3322
                        ],
                        [
                            10.1707,
                            54.3333
                        ],
                        [
                            10.1702,
                            54.3334
                        ],
                        [
                            10.1695,
                            54.3331
                        ],
                        [
                            10.1687,
                            54.3336
                        ],
                        [
                            10.1693,
                            54.3338
                        ],
                        [
                            10.167,
                            54.3356
                        ],
                        [
                            10.1696,
                            54.3369
                        ],
                        [
                            10.1707,
                            54.3376
                        ],
                        [
                            10.1711,
                            54.3373
                        ],
                        [
                            10.1758,
                            54.334
                        ],
                        [
                            10.1772,
                            54.3345
                        ],
                        [
                            10.173,
                            54.3376
                        ],
                        [
                            10.1738,
                            54.3378
                        ],
                        [
                            10.1743,
                            54.3381
                        ],
                        [
                            10.1747,
                            54.3383
                        ],
                        [
                            10.175,
                            54.3386
                        ],
                        [
                            10.1751,
                            54.3388
                        ],
                        [
                            10.1751,
                            54.3403
                        ],
                        [
                            10.1754,
                            54.3406
                        ],
                        [
                            10.1755,
                            54.3412
                        ],
                        [
                            10.1753,
                            54.3418
                        ],
                        [
                            10.1751,
                            54.3423
                        ],
                        [
                            10.1749,
                            54.3426
                        ],
                        [
                            10.1748,
                            54.3429
                        ],
                        [
                            10.175,
                            54.3432
                        ],
                        [
                            10.1752,
                            54.3437
                        ],
                        [
                            10.1751,
                            54.3442
                        ],
                        [
                            10.1748,
                            54.3449
                        ],
                        [
                            10.1742,
                            54.3457
                        ],
                        [
                            10.1736,
                            54.3464
                        ],
                        [
                            10.174,
                            54.3469
                        ],
                        [
                            10.1743,
                            54.3474
                        ],
                        [
                            10.1748,
                            54.3481
                        ],
                        [
                            10.1738,
                            54.3484
                        ],
                        [
                            10.1763,
                            54.3502
                        ],
                        [
                            10.1771,
                            54.3505
                        ],
                        [
                            10.1775,
                            54.3511
                        ],
                        [
                            10.1777,
                            54.3517
                        ],
                        [
                            10.1777,
                            54.3526
                        ],
                        [
                            10.1778,
                            54.3532
                        ],
                        [
                            10.1775,
                            54.3536
                        ],
                        [
                            10.1776,
                            54.3545
                        ],
                        [
                            10.1777,
                            54.355
                        ],
                        [
                            10.1783,
                            54.3558
                        ],
                        [
                            10.1791,
                            54.3566
                        ],
                        [
                            10.1793,
                            54.3571
                        ],
                        [
                            10.1795,
                            54.3576
                        ],
                        [
                            10.1794,
                            54.3582
                        ],
                        [
                            10.1794,
                            54.3589
                        ],
                        [
                            10.1788,
                            54.3602
                        ],
                        [
                            10.1783,
                            54.3607
                        ],
                        [
                            10.1782,
                            54.3611
                        ],
                        [
                            10.1787,
                            54.3615
                        ],
                        [
                            10.1794,
                            54.3618
                        ],
                        [
                            10.1804,
                            54.362
                        ],
                        [
                            10.1812,
                            54.3621
                        ],
                        [
                            10.1822,
                            54.3627
                        ],
                        [
                            10.1833,
                            54.363
                        ],
                        [
                            10.1854,
                            54.3634
                        ],
                        [
                            10.1889,
                            54.364
                        ],
                        [
                            10.1902,
                            54.3643
                        ],
                        [
                            10.1915,
                            54.3644
                        ],
                        [
                            10.1935,
                            54.365
                        ],
                        [
                            10.1946,
                            54.3653
                        ],
                        [
                            10.195,
                            54.3655
                        ],
                        [
                            10.1954,
                            54.3656
                        ],
                        [
                            10.196,
                            54.366
                        ],
                        [
                            10.1963,
                            54.3667
                        ],
                        [
                            10.1965,
                            54.3675
                        ],
                        [
                            10.1967,
                            54.3683
                        ],
                        [
                            10.1966,
                            54.3689
                        ],
                        [
                            10.1965,
                            54.3698
                        ],
                        [
                            10.1958,
                            54.3707
                        ],
                        [
                            10.1953,
                            54.3712
                        ],
                        [
                            10.1948,
                            54.3717
                        ],
                        [
                            10.1947,
                            54.3722
                        ],
                        [
                            10.1954,
                            54.3731
                        ],
                        [
                            10.1959,
                            54.3738
                        ],
                        [
                            10.1964,
                            54.3745
                        ],
                        [
                            10.1966,
                            54.3749
                        ],
                        [
                            10.1967,
                            54.3752
                        ],
                        [
                            10.1966,
                            54.3755
                        ],
                        [
                            10.1958,
                            54.3766
                        ],
                        [
                            10.195,
                            54.378
                        ],
                        [
                            10.1943,
                            54.3783
                        ],
                        [
                            10.1937,
                            54.3788
                        ],
                        [
                            10.1937,
                            54.3793
                        ],
                        [
                            10.1939,
                            54.3796
                        ],
                        [
                            10.1944,
                            54.3798
                        ],
                        [
                            10.1959,
                            54.38
                        ],
                        [
                            10.1973,
                            54.3801
                        ],
                        [
                            10.1992,
                            54.3803
                        ],
                        [
                            10.2002,
                            54.3807
                        ],
                        [
                            10.2012,
                            54.3812
                        ],
                        [
                            10.202,
                            54.3817
                        ],
                        [
                            10.2025,
                            54.382
                        ],
                        [
                            10.2027,
                            54.3824
                        ],
                        [
                            10.203,
                            54.3831
                        ],
                        [
                            10.2034,
                            54.3835
                        ],
                        [
                            10.2046,
                            54.3844
                        ],
                        [
                            10.2051,
                            54.3848
                        ],
                        [
                            10.2069,
                            54.3864
                        ],
                        [
                            10.2081,
                            54.3874
                        ],
                        [
                            10.2082,
                            54.3879
                        ],
                        [
                            10.2082,
                            54.3883
                        ],
                        [
                            10.208,
                            54.3888
                        ],
                        [
                            10.208,
                            54.3894
                        ],
                        [
                            10.2083,
                            54.3899
                        ],
                        [
                            10.2091,
                            54.3913
                        ],
                        [
                            10.2097,
                            54.392
                        ],
                        [
                            10.2097,
                            54.3926
                        ],
                        [
                            10.2103,
                            54.3931
                        ],
                        [
                            10.2105,
                            54.3935
                        ],
                        [
                            10.2106,
                            54.3941
                        ],
                        [
                            10.2101,
                            54.3947
                        ],
                        [
                            10.2096,
                            54.3953
                        ],
                        [
                            10.2091,
                            54.3957
                        ],
                        [
                            10.2092,
                            54.3961
                        ],
                        [
                            10.2091,
                            54.3964
                        ],
                        [
                            10.2092,
                            54.3966
                        ],
                        [
                            10.2096,
                            54.3967
                        ],
                        [
                            10.2119,
                            54.3969
                        ],
                        [
                            10.213,
                            54.3973
                        ],
                        [
                            10.2137,
                            54.3977
                        ],
                        [
                            10.2143,
                            54.3982
                        ],
                        [
                            10.2147,
                            54.3985
                        ],
                        [
                            10.2156,
                            54.3988
                        ],
                        [
                            10.2162,
                            54.3993
                        ],
                        [
                            10.2146,
                            54.3994
                        ],
                        [
                            10.2138,
                            54.3994
                        ],
                        [
                            10.2145,
                            54.4001
                        ],
                        [
                            10.2153,
                            54.4005
                        ],
                        [
                            10.2162,
                            54.401
                        ],
                        [
                            10.2167,
                            54.4013
                        ],
                        [
                            10.2179,
                            54.4023
                        ],
                        [
                            10.2186,
                            54.4029
                        ],
                        [
                            10.2194,
                            54.4034
                        ],
                        [
                            10.2183,
                            54.4038
                        ],
                        [
                            10.2168,
                            54.404
                        ],
                        [
                            10.2168,
                            54.4043
                        ],
                        [
                            10.2175,
                            54.4047
                        ],
                        [
                            10.2176,
                            54.4053
                        ],
                        [
                            10.218,
                            54.4059
                        ],
                        [
                            10.2188,
                            54.4066
                        ],
                        [
                            10.2196,
                            54.4073
                        ],
                        [
                            10.2204,
                            54.4079
                        ],
                        [
                            10.2214,
                            54.4086
                        ],
                        [
                            10.2224,
                            54.4093
                        ],
                        [
                            10.2234,
                            54.4099
                        ],
                        [
                            10.2247,
                            54.4103
                        ],
                        [
                            10.2254,
                            54.4109
                        ],
                        [
                            10.2266,
                            54.4116
                        ],
                        [
                            10.2275,
                            54.4122
                        ],
                        [
                            10.2279,
                            54.4124
                        ],
                        [
                            10.2279,
                            54.4127
                        ],
                        [
                            10.2279,
                            54.4129
                        ],
                        [
                            10.2275,
                            54.4133
                        ],
                        [
                            10.2271,
                            54.4135
                        ],
                        [
                            10.2265,
                            54.4136
                        ],
                        [
                            10.2261,
                            54.4139
                        ],
                        [
                            10.2268,
                            54.4142
                        ],
                        [
                            10.2287,
                            54.4142
                        ],
                        [
                            10.2296,
                            54.4144
                        ],
                        [
                            10.23,
                            54.4145
                        ],
                        [
                            10.2305,
                            54.4145
                        ],
                        [
                            10.2312,
                            54.4146
                        ],
                        [
                            10.2317,
                            54.4147
                        ],
                        [
                            10.2328,
                            54.4149
                        ],
                        [
                            10.2336,
                            54.4153
                        ],
                        [
                            10.2341,
                            54.4157
                        ],
                        [
                            10.2347,
                            54.4157
                        ],
                        [
                            10.2367,
                            54.4158
                        ],
                        [
                            10.2386,
                            54.4159
                        ],
                        [
                            10.2402,
                            54.416
                        ],
                        [
                            10.241,
                            54.4162
                        ],
                        [
                            10.2421,
                            54.4164
                        ],
                        [
                            10.2432,
                            54.4163
                        ],
                        [
                            10.2442,
                            54.4166
                        ],
                        [
                            10.2463,
                            54.4167
                        ],
                        [
                            10.2486,
                            54.4169
                        ],
                        [
                            10.2509,
                            54.417
                        ],
                        [
                            10.2533,
                            54.4171
                        ],
                        [
                            10.2554,
                            54.4172
                        ],
                        [
                            10.2577,
                            54.4173
                        ],
                        [
                            10.2594,
                            54.4173
                        ],
                        [
                            10.2614,
                            54.4173
                        ],
                        [
                            10.2627,
                            54.4174
                        ],
                        [
                            10.2633,
                            54.4176
                        ],
                        [
                            10.2642,
                            54.4177
                        ],
                        [
                            10.2648,
                            54.4176
                        ],
                        [
                            10.2657,
                            54.4177
                        ],
                        [
                            10.2662,
                            54.4179
                        ],
                        [
                            10.2671,
                            54.4182
                        ],
                        [
                            10.2678,
                            54.4184
                        ],
                        [
                            10.2685,
                            54.4185
                        ],
                        [
                            10.2691,
                            54.4186
                        ],
                        [
                            10.2699,
                            54.4185
                        ],
                        [
                            10.2706,
                            54.4185
                        ],
                        [
                            10.2727,
                            54.4185
                        ],
                        [
                            10.273,
                            54.4187
                        ],
                        [
                            10.2732,
                            54.4189
                        ],
                        [
                            10.2736,
                            54.419
                        ],
                        [
                            10.2743,
                            54.4191
                        ],
                        [
                            10.2748,
                            54.4194
                        ],
                        [
                            10.2751,
                            54.4196
                        ],
                        [
                            10.2757,
                            54.4196
                        ],
                        [
                            10.2764,
                            54.4191
                        ],
                        [
                            10.2766,
                            54.4189
                        ],
                        [
                            10.2767,
                            54.4187
                        ],
                        [
                            10.2769,
                            54.4185
                        ],
                        [
                            10.277,
                            54.4183
                        ],
                        [
                            10.2773,
                            54.4182
                        ],
                        [
                            10.2787,
                            54.4182
                        ],
                        [
                            10.2799,
                            54.4182
                        ],
                        [
                            10.2803,
                            54.4184
                        ],
                        [
                            10.2808,
                            54.4186
                        ],
                        [
                            10.281,
                            54.4188
                        ],
                        [
                            10.2813,
                            54.4193
                        ],
                        [
                            10.2898,
                            54.4195
                        ],
                        [
                            10.2898,
                            54.4204
                        ],
                        [
                            10.2898,
                            54.4213
                        ],
                        [
                            10.29,
                            54.4216
                        ],
                        [
                            10.2904,
                            54.4217
                        ],
                        [
                            10.2912,
                            54.4218
                        ],
                        [
                            10.2929,
                            54.422
                        ],
                        [
                            10.2931,
                            54.4224
                        ],
                        [
                            10.294,
                            54.425
                        ],
                        [
                            10.294,
                            54.4258
                        ],
                        [
                            10.2931,
                            54.4253
                        ],
                        [
                            10.2924,
                            54.4249
                        ],
                        [
                            10.2918,
                            54.4249
                        ],
                        [
                            10.2914,
                            54.4252
                        ],
                        [
                            10.2909,
                            54.4256
                        ],
                        [
                            10.2903,
                            54.4258
                        ],
                        [
                            10.2894,
                            54.4258
                        ],
                        [
                            10.2889,
                            54.4254
                        ],
                        [
                            10.2887,
                            54.4248
                        ],
                        [
                            10.2883,
                            54.4245
                        ],
                        [
                            10.2876,
                            54.4246
                        ],
                        [
                            10.2871,
                            54.4246
                        ],
                        [
                            10.2866,
                            54.4245
                        ],
                        [
                            10.2861,
                            54.4239
                        ],
                        [
                            10.2855,
                            54.4233
                        ],
                        [
                            10.285,
                            54.4232
                        ],
                        [
                            10.2843,
                            54.423
                        ],
                        [
                            10.2841,
                            54.4225
                        ],
                        [
                            10.2835,
                            54.4221
                        ],
                        [
                            10.2826,
                            54.422
                        ],
                        [
                            10.2822,
                            54.4219
                        ],
                        [
                            10.2818,
                            54.4214
                        ],
                        [
                            10.2815,
                            54.4209
                        ],
                        [
                            10.2808,
                            54.4205
                        ],
                        [
                            10.28,
                            54.4203
                        ],
                        [
                            10.2795,
                            54.4201
                        ],
                        [
                            10.2789,
                            54.4202
                        ],
                        [
                            10.2782,
                            54.4201
                        ],
                        [
                            10.2774,
                            54.42
                        ],
                        [
                            10.2761,
                            54.4215
                        ],
                        [
                            10.2784,
                            54.4223
                        ],
                        [
                            10.2797,
                            54.423
                        ],
                        [
                            10.2809,
                            54.4237
                        ],
                        [
                            10.2819,
                            54.4241
                        ],
                        [
                            10.2831,
                            54.4247
                        ],
                        [
                            10.284,
                            54.4252
                        ],
                        [
                            10.285,
                            54.4258
                        ],
                        [
                            10.2863,
                            54.4264
                        ],
                        [
                            10.2874,
                            54.4269
                        ],
                        [
                            10.292,
                            54.4286
                        ],
                        [
                            10.2931,
                            54.4292
                        ],
                        [
                            10.2943,
                            54.4295
                        ],
                        [
                            10.2957,
                            54.4298
                        ],
                        [
                            10.2969,
                            54.4304
                        ],
                        [
                            10.2973,
                            54.4308
                        ],
                        [
                            10.2976,
                            54.4311
                        ],
                        [
                            10.2988,
                            54.4314
                        ],
                        [
                            10.3,
                            54.4317
                        ],
                        [
                            10.3008,
                            54.432
                        ],
                        [
                            10.3015,
                            54.4328
                        ],
                        [
                            10.3021,
                            54.4332
                        ],
                        [
                            10.3029,
                            54.4334
                        ],
                        [
                            10.3037,
                            54.4334
                        ],
                        [
                            10.3048,
                            54.4335
                        ],
                        [
                            10.3058,
                            54.4336
                        ],
                        [
                            10.3062,
                            54.4337
                        ],
                        [
                            10.3067,
                            54.434
                        ],
                        [
                            10.3073,
                            54.4339
                        ],
                        [
                            10.308,
                            54.4339
                        ],
                        [
                            10.3088,
                            54.434
                        ],
                        [
                            10.3095,
                            54.4344
                        ],
                        [
                            10.3103,
                            54.4342
                        ],
                        [
                            10.3112,
                            54.4343
                        ],
                        [
                            10.3118,
                            54.4344
                        ],
                        [
                            10.3123,
                            54.4345
                        ],
                        [
                            10.3126,
                            54.4349
                        ],
                        [
                            10.3133,
                            54.4347
                        ],
                        [
                            10.31391330987978,
                            54.4347
                        ],
                        [
                            10.198835231873492,
                            54.454948185498793
                        ]
                    ]
                ]
            }
        }
    ]
}